start=new Date('2022-01-06T00:00:00.000Z').valueOf();
sats=[{"NORAD_CAT_ID":"48289","MEAN_ANOMALY":"276.2782","TIME_SYSTEM":"UTC","CLASSIFICATION_TYPE":"U","EPHEMERIS_TYPE":"0","COUNTRY_CODE":"US","PERIOD":"95.593","TLE_LINE2":"2 48289  53.0552  82.9714 0001278  83.8353 276.2782 15.06391075 38611","DECAY_DATE":null,"SEMIMAJOR_AXIS":"6925.376","GP_ID":"193284701","MEAN_MOTION_DDOT":"0.0000000000000","TLE_LINE1":"1 48289U 21036P   22005.72063845 -.00000052  00000-0  15427-4 0  9998","ELEMENT_SET_NO":"999","FILE":"3265018","ECCENTRICITY":"0.00012780","OBJECT_TYPE":"PAYLOAD","EPOCH":"2022-01-05T17:17:43.162080","MEAN_MOTION_DOT":"-0.00000052","REV_AT_EPOCH":"3861","MEAN_ELEMENT_THEORY":"SGP4","LAUNCH_DATE":"2021-04-29","OBJECT_ID":"2021-036P","OBJECT_NAME":"STARLINK-2545","BSTAR":"0.00001542700000","REF_FRAME":"TEME","CENTER_NAME":"EARTH","INCLINATION":"53.0552","PERIAPSIS":"546.356","RA_OF_ASC_NODE":"82.9714","RCS_SIZE":"LARGE","APOAPSIS":"548.126","SITE":"AFETR","MEAN_MOTION":"15.06391075","ARG_OF_PERICENTER":"83.8353"},{"MEAN_MOTION":"15.06386424","ARG_OF_PERICENTER":"73.3563","APOAPSIS":"548.043","SITE":"AFETR","RCS_SIZE":"LARGE","INCLINATION":"53.0556","RA_OF_ASC_NODE":"83.3079","PERIAPSIS":"546.468","CENTER_NAME":"EARTH","REF_FRAME":"TEME","BSTAR":"0.00016404000000","OBJECT_ID":"2021-036Q","OBJECT_NAME":"STARLINK-2540","LAUNCH_DATE":"2021-04-29","MEAN_ELEMENT_THEORY":"SGP4","MEAN_MOTION_DOT":"0.00002162","REV_AT_EPOCH":"3860","OBJECT_TYPE":"PAYLOAD","EPOCH":"2022-01-05T15:36:54.298944","ECCENTRICITY":"0.00011370","FILE":"3265018","ELEMENT_SET_NO":"999","TLE_LINE1":"1 48290U 21036Q   22005.65062846  .00002162  00000-0  16404-3 0  9990","GP_ID":"193285452","MEAN_MOTION_DDOT":"0.0000000000000","SEMIMAJOR_AXIS":"6925.390","TLE_LINE2":"2 48290  53.0556  83.3079 0001137  73.3563 286.7551 15.06386424 38608","DECAY_DATE":null,"COUNTRY_CODE":"US","PERIOD":"95.593","EPHEMERIS_TYPE":"0","CLASSIFICATION_TYPE":"U","TIME_SYSTEM":"UTC","NORAD_CAT_ID":"48290","MEAN_ANOMALY":"286.7551"},{"TIME_SYSTEM":"UTC","MEAN_ANOMALY":"288.2357","NORAD_CAT_ID":"48291","CLASSIFICATION_TYPE":"U","PERIOD":"95.593","COUNTRY_CODE":"US","EPHEMERIS_TYPE":"0","GP_ID":"193286199","SEMIMAJOR_AXIS":"6925.391","MEAN_MOTION_DDOT":"0.0000000000000","DECAY_DATE":null,"TLE_LINE2":"2 48291  53.0551  83.0194 0001587  71.8805 288.2357 15.06386245 38613","TLE_LINE1":"1 48291U 21036R   22005.71326692 -.00001016  00000-0 -49349-4 0  9994","ELEMENT_SET_NO":"999","OBJECT_TYPE":"PAYLOAD","EPOCH":"2022-01-05T17:07:06.261888","FILE":"3265018","ECCENTRICITY":"0.00015870","REV_AT_EPOCH":"3861","MEAN_MOTION_DOT":"-0.00001016","MEAN_ELEMENT_THEORY":"SGP4","LAUNCH_DATE":"2021-04-29","OBJECT_NAME":"STARLINK-2555","OBJECT_ID":"2021-036R","BSTAR":"-0.00004934900000","CENTER_NAME":"EARTH","REF_FRAME":"TEME","RCS_SIZE":"LARGE","RA_OF_ASC_NODE":"83.0194","PERIAPSIS":"546.157","INCLINATION":"53.0551","ARG_OF_PERICENTER":"71.8805","MEAN_MOTION":"15.06386245","APOAPSIS":"548.355","SITE":"AFETR"},{"MEAN_MOTION":"15.06410822","ARG_OF_PERICENTER":"78.6209","SITE":"AFETR","APOAPSIS":"548.026","RCS_SIZE":"LARGE","INCLINATION":"53.0559","RA_OF_ASC_NODE":"83.3338","PERIAPSIS":"546.335","CENTER_NAME":"EARTH","REF_FRAME":"TEME","BSTAR":"-0.00023616000000","OBJECT_ID":"2021-036S","OBJECT_NAME":"STARLINK-2542","LAUNCH_DATE":"2021-04-29","MEAN_ELEMENT_THEORY":"SGP4","MEAN_MOTION_DOT":"-0.00003798","REV_AT_EPOCH":"3860","OBJECT_TYPE":"PAYLOAD","EPOCH":"2022-01-05T15:24:53.411040","ECCENTRICITY":"0.00012210","FILE":"3265018","ELEMENT_SET_NO":"999","TLE_LINE1":"1 48292U 21036S   22005.64228485 -.00003798  00000-0 -23616-3 0  9995","MEAN_MOTION_DDOT":"0.0000000000000","GP_ID":"193286418","SEMIMAJOR_AXIS":"6925.315","TLE_LINE2":"2 48292  53.0559  83.3338 0001221  78.6209 281.4917 15.06410822 38608","DECAY_DATE":null,"COUNTRY_CODE":"US","PERIOD":"95.591","EPHEMERIS_TYPE":"0","CLASSIFICATION_TYPE":"U","TIME_SYSTEM":"UTC","NORAD_CAT_ID":"48292","MEAN_ANOMALY":"281.4917"},{"LAUNCH_DATE":"2021-04-29","OBJECT_NAME":"STARLINK-2550","OBJECT_ID":"2021-036T","REV_AT_EPOCH":"3860","MEAN_MOTION_DOT":"0.00000094","MEAN_ELEMENT_THEORY":"SGP4","RCS_SIZE":"LARGE","RA_OF_ASC_NODE":"83.3435","PERIAPSIS":"546.456","INCLINATION":"53.0558","ARG_OF_PERICENTER":"83.8045","MEAN_MOTION":"15.06392087","APOAPSIS":"548.020","SITE":"AFETR","BSTAR":"0.00002523000000","CENTER_NAME":"EARTH","REF_FRAME":"TEME","CLASSIFICATION_TYPE":"U","PERIOD":"95.593","COUNTRY_CODE":"US","EPHEMERIS_TYPE":"0","TIME_SYSTEM":"UTC","MEAN_ANOMALY":"276.3072","NORAD_CAT_ID":"48293","ELEMENT_SET_NO":"999","EPOCH":"2022-01-05T15:20:56.837472","OBJECT_TYPE":"PAYLOAD","ECCENTRICITY":"0.00011290","FILE":"3265018","GP_ID":"193285201","SEMIMAJOR_AXIS":"6925.373","MEAN_MOTION_DDOT":"0.0000000000000","DECAY_DATE":null,"TLE_LINE2":"2 48293  53.0558  83.3435 0001129  83.8045 276.3072 15.06392087 38606","TLE_LINE1":"1 48293U 21036T   22005.63954673  .00000094  00000-0  25230-4 0  9999"},{"MEAN_MOTION_DOT":"0.00000260","REV_AT_EPOCH":"3860","MEAN_ELEMENT_THEORY":"SGP4","LAUNCH_DATE":"2021-04-29","OBJECT_ID":"2021-036U","OBJECT_NAME":"STARLINK-2533","BSTAR":"0.00003634900000","REF_FRAME":"TEME","CENTER_NAME":"EARTH","INCLINATION":"53.0560","PERIAPSIS":"546.214","RA_OF_ASC_NODE":"83.3748","RCS_SIZE":"LARGE","APOAPSIS":"548.261","SITE":"AFETR","MEAN_MOTION":"15.06392277","ARG_OF_PERICENTER":"73.6781","NORAD_CAT_ID":"48294","MEAN_ANOMALY":"286.4370","TIME_SYSTEM":"UTC","CLASSIFICATION_TYPE":"U","EPHEMERIS_TYPE":"0","COUNTRY_CODE":"US","PERIOD":"95.593","TLE_LINE2":"2 48294  53.0560  83.3748 0001478  73.6781 286.4370 15.06392277 38602","DECAY_DATE":null,"SEMIMAJOR_AXIS":"6925.372","GP_ID":"193285952","MEAN_MOTION_DDOT":"0.0000000000000","TLE_LINE1":"1 48294U 21036U   22005.63586060  .00000260  00000-0  36349-4 0  9999","ELEMENT_SET_NO":"999","FILE":"3265018","ECCENTRICITY":"0.00014780","OBJECT_TYPE":"PAYLOAD","EPOCH":"2022-01-05T15:15:38.355840"},{"ECCENTRICITY":"0.00013310","FILE":"3265018","EPOCH":"2022-01-05T15:10:19.840512","OBJECT_TYPE":"PAYLOAD","ELEMENT_SET_NO":"999","TLE_LINE1":"1 48295U 21036V   22005.63217408  .00000625  00000-0  60867-4 0  9994","TLE_LINE2":"2 48295  53.0538  83.3786 0001331  87.5589 272.5552 15.06393402 38607","DECAY_DATE":null,"GP_ID":"193285700","SEMIMAJOR_AXIS":"6925.369","MEAN_MOTION_DDOT":"0.0000000000000","EPHEMERIS_TYPE":"0","COUNTRY_CODE":"US","PERIOD":"95.593","CLASSIFICATION_TYPE":"U","NORAD_CAT_ID":"48295","MEAN_ANOMALY":"272.5552","TIME_SYSTEM":"UTC","APOAPSIS":"548.156","SITE":"AFETR","MEAN_MOTION":"15.06393402","ARG_OF_PERICENTER":"87.5589","INCLINATION":"53.0538","PERIAPSIS":"546.312","RA_OF_ASC_NODE":"83.3786","RCS_SIZE":"LARGE","REF_FRAME":"TEME","CENTER_NAME":"EARTH","BSTAR":"0.00006086700000","OBJECT_ID":"2021-036V","OBJECT_NAME":"STARLINK-2535","LAUNCH_DATE":"2021-04-29","MEAN_ELEMENT_THEORY":"SGP4","MEAN_MOTION_DOT":"0.00000625","REV_AT_EPOCH":"3860"},{"MEAN_ANOMALY":"264.1466","NORAD_CAT_ID":"48296","TIME_SYSTEM":"UTC","EPHEMERIS_TYPE":"0","PERIOD":"95.593","COUNTRY_CODE":"US","CLASSIFICATION_TYPE":"U","TLE_LINE1":"1 48296U 21036W   22005.49578775  .00002071  00000-0  15794-3 0  9991","DECAY_DATE":null,"TLE_LINE2":"2 48296  53.0547  83.9946 0001130  95.9652 264.1466 15.06385821 38587","SEMIMAJOR_AXIS":"6925.392","GP_ID":"193253324","MEAN_MOTION_DDOT":"0.0000000000000","ECCENTRICITY":"0.00011300","FILE":"3264673","EPOCH":"2022-01-05T11:53:56.061600","OBJECT_TYPE":"PAYLOAD","ELEMENT_SET_NO":"999","MEAN_ELEMENT_THEORY":"SGP4","REV_AT_EPOCH":"3858","MEAN_MOTION_DOT":"0.00002071","OBJECT_NAME":"STARLINK-2546","OBJECT_ID":"2021-036W","LAUNCH_DATE":"2021-04-29","REF_FRAME":"TEME","CENTER_NAME":"EARTH","BSTAR":"0.00015794000000","APOAPSIS":"548.040","SITE":"AFETR","ARG_OF_PERICENTER":"95.9652","MEAN_MOTION":"15.06385821","PERIAPSIS":"546.474","RA_OF_ASC_NODE":"83.9946","INCLINATION":"53.0547","RCS_SIZE":"LARGE"},{"CENTER_NAME":"EARTH","REF_FRAME":"TEME","BSTAR":"0.00001009100000","MEAN_MOTION":"15.06389646","ARG_OF_PERICENTER":"78.4996","SITE":"AFETR","APOAPSIS":"548.193","RCS_SIZE":"LARGE","INCLINATION":"53.0547","PERIAPSIS":"546.298","RA_OF_ASC_NODE":"83.4156","MEAN_ELEMENT_THEORY":"SGP4","MEAN_MOTION_DOT":"-0.00000131","REV_AT_EPOCH":"3860","OBJECT_ID":"2021-036X","OBJECT_NAME":"STARLINK-2544","LAUNCH_DATE":"2021-04-29","TLE_LINE1":"1 48297U 21036X   22005.62480067 -.00000131  00000-0  10091-4 0  9995","GP_ID":"193284702","SEMIMAJOR_AXIS":"6925.380","MEAN_MOTION_DDOT":"0.0000000000000","TLE_LINE2":"2 48297  53.0547  83.4156 0001368  78.4996 281.6146 15.06389646 38607","DECAY_DATE":null,"OBJECT_TYPE":"PAYLOAD","EPOCH":"2022-01-05T14:59:42.777888","FILE":"3265018","ECCENTRICITY":"0.00013680","ELEMENT_SET_NO":"999","TIME_SYSTEM":"UTC","NORAD_CAT_ID":"48297","MEAN_ANOMALY":"281.6146","COUNTRY_CODE":"US","PERIOD":"95.593","EPHEMERIS_TYPE":"0","CLASSIFICATION_TYPE":"U"},{"GP_ID":"193285453","SEMIMAJOR_AXIS":"6925.379","MEAN_MOTION_DDOT":"0.0000000000000","TLE_LINE2":"2 48298  53.0551  83.4325 0001335  86.2269 273.8872 15.06390049 38603","DECAY_DATE":null,"TLE_LINE1":"1 48298U 21036Y   22005.62111603  .00000226  00000-0  34063-4 0  9992","ELEMENT_SET_NO":"999","EPOCH":"2022-01-05T14:54:24.424992","OBJECT_TYPE":"PAYLOAD","FILE":"3265018","ECCENTRICITY":"0.00013350","TIME_SYSTEM":"UTC","NORAD_CAT_ID":"48298","MEAN_ANOMALY":"273.8872","CLASSIFICATION_TYPE":"U","COUNTRY_CODE":"US","PERIOD":"95.593","EPHEMERIS_TYPE":"0","BSTAR":"0.00003406300000","CENTER_NAME":"EARTH","REF_FRAME":"TEME","RCS_SIZE":"LARGE","INCLINATION":"53.0551","PERIAPSIS":"546.320","RA_OF_ASC_NODE":"83.4325","MEAN_MOTION":"15.06390049","ARG_OF_PERICENTER":"86.2269","APOAPSIS":"548.169","SITE":"AFETR","MEAN_MOTION_DOT":"0.00000226","REV_AT_EPOCH":"3860","MEAN_ELEMENT_THEORY":"SGP4","LAUNCH_DATE":"2021-04-29","OBJECT_ID":"2021-036Y","OBJECT_NAME":"STARLINK-2559"}];
